*******************************************************************************
Ephemeris / WWW_USER Mon Jul 15 19:19:37 2024 Pasadena, USA      / Horizons    
*******************************************************************************
Target body name: (2019 AS11)                     {source: JPL#3}
Center body name: Earth (399)                     {source: DE441}
Center-site name: Gemini South Obs., Cerro Pachon
*******************************************************************************
Start time      : A.D. 2019-Jan-27 23:53:00.0000 UT      
Stop  time      : A.D. 2019-Jan-28 09:58:00.0000 UT      
Step-size       : 1 minutes
*******************************************************************************
Target pole/equ : undefined
Target radii    : undefined                                                    
Center geodetic : 289.2634, -30.2406227, 2.71233  {E-lon(deg),Lat(deg),Alt(km)}
Center cylindric: 289.2634,5517.21435,-3194.81213 {E-lon(deg),Dxy(km),Dz(km)}
Center pole/equ : ITRF93                          {East-longitude positive}
Center radii    : 6378.137, 6378.137, 6356.752 km {Equator_a, b, pole_c}       
Target primary  : Sun
Vis. interferer : MOON (R_eq= 1737.400) km        {source: DE441}
Rel. light bend : Sun                             {source: DE441}
Rel. lght bnd GM: 1.3271E+11 km^3/s^2                                          
Small-body perts: Yes                             {source: SB441-N16}
Atmos refraction: NO (AIRLESS)
RA format       : HMS
Time format     : CAL 
Calendar mode   : Mixed Julian/Gregorian
RTS-only print  : NO       
EOP file        : eop.240715.p241008                                           
EOP coverage    : DATA-BASED 1962-JAN-20 TO 2024-JUL-15. PREDICTS-> 2024-OCT-07
Units conversion: 1 au= 149597870.700 km, c= 299792.458 km/s, 1 day= 86400.0 s 
Table cut-offs 1: Elevation (-90.0deg=NO ),Airmass (>38.000=NO), Daylight (YES)
Table cut-offs 2: Solar elongation (  0.0,180.0=NO ),Local Hour Angle( 0.0=NO )
Table cut-offs 3: RA/DEC angular rate (     0.0=NO )                           
*******************************************************************************
Initial IAU76/J2000 heliocentric ecliptic osculating elements (au, days, deg.):
  EPOCH=  2458497.5 ! 2019-Jan-14.00 (TDB)         Residual RMS= .087899       
   EC= .1148313279028816   QR= .9946661968961306   TP= 2458526.093433633       
   OM= 299.8828960483019   W=  203.050931799211    IN= 7.281527766683049       
  Equivalent ICRF heliocentric cartesian coordinates (au, au/d):
   X=-3.982431103506237E-01  Y= 8.438985356712057E-01  Z= 3.820551439764541E-01
  VX=-1.601846206933958E-02 VY=-6.309373484980013E-03 VZ=-5.215303828559489E-03
Asteroid physical parameters (km, seconds, rotational period in hours):        
   GM= n.a.                RAD= n.a.               ROTPER= n.a.                
   H= 26.8                 G= .150                 B-V= n.a.                   
                           ALBEDO= n.a.            STYP= n.a.                  
*******************************************************************************
 Date__(UT)__HR:MN     R.A._________(ICRF)_________DEC
******************************************************
$$SOE
 2019-Jan-28 08:05  m  08 06 00.254922 -35 09 13.28384
 2019-Jan-28 08:06  m  08 06 00.159842 -35 09 25.19541
 2019-Jan-28 08:07  m  08 06 00.065210 -35 09 37.10363
 2019-Jan-28 08:08  m  08 05 59.971028 -35 09 49.00850
 2019-Jan-28 08:09  m  08 05 59.877296 -35 10 00.91004
 2019-Jan-28 08:10  m  08 05 59.784015 -35 10 12.80826
 2019-Jan-28 08:11  m  08 05 59.691188 -35 10 24.70318
 2019-Jan-28 08:12  m  08 05 59.598815 -35 10 36.59480
 2019-Jan-28 08:13  m  08 05 59.506898 -35 10 48.48315
 2019-Jan-28 08:14  m  08 05 59.415437 -35 11 00.36824
 2019-Jan-28 08:15  m  08 05 59.324434 -35 11 12.25008
 2019-Jan-28 08:16  m  08 05 59.233891 -35 11 24.12868
 2019-Jan-28 08:17  m  08 05 59.143808 -35 11 36.00407
 2019-Jan-28 08:18  m  08 05 59.054187 -35 11 47.87625
 2019-Jan-28 08:19  m  08 05 58.965028 -35 11 59.74524
 2019-Jan-28 08:20  m  08 05 58.876334 -35 12 11.61105
 2019-Jan-28 08:21  m  08 05 58.788104 -35 12 23.47369
 2019-Jan-28 08:22  m  08 05 58.700341 -35 12 35.33319
 2019-Jan-28 08:23  m  08 05 58.613046 -35 12 47.18956
 2019-Jan-28 08:24  m  08 05 58.526219 -35 12 59.04280
 2019-Jan-28 08:25  m  08 05 58.439862 -35 13 10.89294
 2019-Jan-28 08:26  m  08 05 58.353975 -35 13 22.73999
 2019-Jan-28 08:27  m  08 05 58.268561 -35 13 34.58396
 2019-Jan-28 08:28  m  08 05 58.183620 -35 13 46.42487
 2019-Jan-28 08:29  m  08 05 58.099153 -35 13 58.26273
 2019-Jan-28 08:30  m  08 05 58.015162 -35 14 10.09757
 2019-Jan-28 08:31  m  08 05 57.931647 -35 14 21.92938
 2019-Jan-28 08:32  m  08 05 57.848609 -35 14 33.75819
 2019-Jan-28 08:33  m  08 05 57.766050 -35 14 45.58401
 2019-Jan-28 08:34  m  08 05 57.683971 -35 14 57.40686
 2019-Jan-28 08:35  m  08 05 57.602372 -35 15 09.22675
 2019-Jan-28 08:36  m  08 05 57.521255 -35 15 21.04369
 2019-Jan-28 08:37  m  08 05 57.440621 -35 15 32.85771
 2019-Jan-28 08:38 Am  08 05 57.360470 -35 15 44.66881
 2019-Jan-28 08:39 Am  08 05 57.280804 -35 15 56.47701
 2019-Jan-28 08:40 Am  08 05 57.201624 -35 16 08.28233
 2019-Jan-28 08:41 Am  08 05 57.122931 -35 16 20.08478
 2019-Jan-28 08:42 Am  08 05 57.044725 -35 16 31.88438
 2019-Jan-28 08:43 Am  08 05 56.967008 -35 16 43.68113
 2019-Jan-28 08:44 Am  08 05 56.889781 -35 16 55.47507
 2019-Jan-28 08:45 Am  08 05 56.813044 -35 17 07.26619
 2019-Jan-28 08:46 Am  08 05 56.736799 -35 17 19.05452
 2019-Jan-28 08:47 Am  08 05 56.661047 -35 17 30.84007
 2019-Jan-28 08:48 Am  08 05 56.585787 -35 17 42.62286
 2019-Jan-28 08:49 Am  08 05 56.511022 -35 17 54.40290
 2019-Jan-28 08:50 Am  08 05 56.436753 -35 18 06.18021
 2019-Jan-28 08:51 Am  08 05 56.362979 -35 18 17.95481
 2019-Jan-28 08:52 Am  08 05 56.289702 -35 18 29.72670
 2019-Jan-28 08:53 Am  08 05 56.216923 -35 18 41.49590
 2019-Jan-28 08:54 Am  08 05 56.144643 -35 18 53.26243
 2019-Jan-28 08:55 Am  08 05 56.072863 -35 19 05.02631
 2019-Jan-28 08:56 Am  08 05 56.001583 -35 19 16.78755
 2019-Jan-28 08:57 Am  08 05 55.930804 -35 19 28.54616
 2019-Jan-28 08:58 Am  08 05 55.860527 -35 19 40.30217
 2019-Jan-28 08:59 Am  08 05 55.790754 -35 19 52.05558
 2019-Jan-28 09:00 Am  08 05 55.721484 -35 20 03.80641
 2019-Jan-28 09:01 Am  08 05 55.652718 -35 20 15.55468
 2019-Jan-28 09:02 Am  08 05 55.584458 -35 20 27.30041
 2019-Jan-28 09:03 Am  08 05 55.516704 -35 20 39.04360
 2019-Jan-28 09:04 Am  08 05 55.449457 -35 20 50.78428
 2019-Jan-28 09:05 Am  08 05 55.382717 -35 21 02.52246
 2019-Jan-28 09:06 Am  08 05 55.316486 -35 21 14.25816
 2019-Jan-28 09:07 Am  08 05 55.250764 -35 21 25.99139
 2019-Jan-28 09:08 Am  08 05 55.185552 -35 21 37.72217
 2019-Jan-28 09:09 Am  08 05 55.120850 -35 21 49.45051
 2019-Jan-28 09:10 Am  08 05 55.056660 -35 22 01.17643
 2019-Jan-28 09:11 Nm  08 05 54.992981 -35 22 12.89995
 2019-Jan-28 09:12 Nm  08 05 54.929815 -35 22 24.62107
 2019-Jan-28 09:13 Nm  08 05 54.867163 -35 22 36.33983
 2019-Jan-28 09:14 Nm  08 05 54.805024 -35 22 48.05623
 2019-Jan-28 09:15 Nm  08 05 54.743400 -35 22 59.77029
 2019-Jan-28 09:16 Nm  08 05 54.682292 -35 23 11.48202
 2019-Jan-28 09:17 Nm  08 05 54.621699 -35 23 23.19145
 2019-Jan-28 09:18 Nm  08 05 54.561624 -35 23 34.89858
 2019-Jan-28 09:19 Nm  08 05 54.502065 -35 23 46.60344
 2019-Jan-28 09:20 Nm  08 05 54.443024 -35 23 58.30603
 2019-Jan-28 09:21 Nm  08 05 54.384501 -35 24 10.00638
 2019-Jan-28 09:22 Nm  08 05 54.326498 -35 24 21.70451
 2019-Jan-28 09:23 Nm  08 05 54.269014 -35 24 33.40042
 2019-Jan-28 09:24 Nm  08 05 54.212050 -35 24 45.09413
 2019-Jan-28 09:25 Nm  08 05 54.155607 -35 24 56.78567
 2019-Jan-28 09:26 Nm  08 05 54.099686 -35 25 08.47504
 2019-Jan-28 09:27 Nm  08 05 54.044286 -35 25 20.16227
 2019-Jan-28 09:28 Nm  08 05 53.989408 -35 25 31.84736
 2019-Jan-28 09:29 Nm  08 05 53.935053 -35 25 43.53034
 2019-Jan-28 09:30 Nm  08 05 53.881222 -35 25 55.21123
 2019-Jan-28 09:31 Nm  08 05 53.827915 -35 26 06.89003
 2019-Jan-28 09:32 Nm  08 05 53.775132 -35 26 18.56676
 2019-Jan-28 09:33 Nm  08 05 53.722873 -35 26 30.24144
 2019-Jan-28 09:34 Nm  08 05 53.671140 -35 26 41.91410
 2019-Jan-28 09:35 Nm  08 05 53.619933 -35 26 53.58473
 2019-Jan-28 09:36 Nm  08 05 53.569252 -35 27 05.25336
 2019-Jan-28 09:37 Nm  08 05 53.519098 -35 27 16.92001
 2019-Jan-28 09:38 Nm  08 05 53.469471 -35 27 28.58470
 2019-Jan-28 09:39 Nm  08 05 53.420371 -35 27 40.24743
 2019-Jan-28 09:40 Nm  08 05 53.371799 -35 27 51.90823
 2019-Jan-28 09:41 Nm  08 05 53.323756 -35 28 03.56710
 2019-Jan-28 09:42 Cm  08 05 53.276241 -35 28 15.22408
 2019-Jan-28 09:43 Cm  08 05 53.229256 -35 28 26.87917
 2019-Jan-28 09:44 Cm  08 05 53.182799 -35 28 38.53240
 2019-Jan-28 09:45 Cm  08 05 53.136873 -35 28 50.18377
 2019-Jan-28 09:46 Cm  08 05 53.091477 -35 29 01.83330
 2019-Jan-28 09:47 Cm  08 05 53.046611 -35 29 13.48102
 2019-Jan-28 09:48 Cm  08 05 53.002276 -35 29 25.12693
 2019-Jan-28 09:49 Cm  08 05 52.958473 -35 29 36.77106
 2019-Jan-28 09:50 Cm  08 05 52.915200 -35 29 48.41342
 2019-Jan-28 09:51 Cm  08 05 52.872460 -35 30 00.05403
 2019-Jan-28 09:52 Cm  08 05 52.830251 -35 30 11.69290
 2019-Jan-28 09:53 Cm  08 05 52.788575 -35 30 23.33005
 2019-Jan-28 09:54 Cm  08 05 52.747432 -35 30 34.96549
 2019-Jan-28 09:55 Cm  08 05 52.706821 -35 30 46.59926
 2019-Jan-28 09:56 Cm  08 05 52.666743 -35 30 58.23135
 2019-Jan-28 09:57 Cm  08 05 52.627199 -35 31 09.86178
 2019-Jan-28 09:58 Cm  08 05 52.588188 -35 31 21.49059
